NORAD_CAT_ID,OBJECT_NAME,OBJECT_TYPE,EPOCH,MEAN_MOTION,ECCENTRICITY,INCLINATION,RA_OF_ASC_NODE,ARG_OF_PERICENTER,MEAN_ANOMALY,BSTAR,MEAN_MOTION_DOT,MEAN_MOTION_DDOT,TLE_LINE0,TLE_LINE1,TLE_LINE2,SEMIMAJOR_AXIS,PERIOD,APOGEE,PERIGEE,DECAYED
53928.0,STARLINK-5009,PAYLOAD,2023-01-02 00:00:00,15.4127468,0.0001685,53.217,125.0386,43.4801,128.1501,-0.029608,-0.01142868,0.0,0 STARLINK-5009,1 53928U 22119AU  23002.00001157 -.01142868  00000-0 -29608-1 0  9991,2 53928  53.2170 125.0386 0001685  43.4801 128.1501 15.41274680  1302,6820.483,93.429,443.497,441.199,0.0
53928.0,STARLINK-5009,PAYLOAD,2023-01-02 06:00:00,15.406641699999998,0.0001815,53.2166,123.8594,36.4377,82.8363,-0.030222,-0.01143022,0.0,0 STARLINK-5009,1 53928U 22119AU  23002.25001157 -.01143022  00000-0 -30222-1 0  9995,2 53928  53.2166 123.8594 0001815  36.4377  82.8363 15.40664170 16033,6822.285,93.466,445.388,442.912,0.0
53928.0,STARLINK-5009,PAYLOAD,2023-01-02 14:00:01,15.39861634,0.0001529,53.2166,122.2905,54.0269,114.5767,-0.031478,-0.01157685,0.0,0 STARLINK-5009,1 53928U 22119AU  23002.58334491 -.01157685  00000-0 -31478-1 0  9995,2 53928  53.2166 122.2905 0001529  54.0269 114.5767 15.39861634  1307,6824.655,93.515,447.564,445.477,0.0
53928.0,STARLINK-5009,PAYLOAD,2023-01-02 22:00:00,15.39052185,0.0001676999999999,53.2162,120.7224,37.196,179.7638,-0.032538,-0.01164434,0.0,0 STARLINK-5009,1 53928U 22119AU  23002.91667824 -.01164434  00000-0 -32538-1 0  9999,2 53928  53.2162 120.7224 0001677  37.1960 179.7638 15.39052185  1307,6827.0480000000025,93.564,450.0580000000001,447.768,0.0
53928.0,STARLINK-5009,PAYLOAD,2023-01-03 06:00:00,15.38228607,0.000166,53.2166,119.1547,44.871,219.4737,-0.032971,-0.01149749,0.0,0 STARLINK-5009,1 53928U 22119AU  23003.25001157 -.01149749  00000-0 -32971-1 0  9991,2 53928  53.2166 119.1547 0001660  44.8710 219.4737 15.38228607 16188,6829.484,93.614,452.483,450.216,0.0
53928.0,STARLINK-5009,PAYLOAD,2023-01-03 14:00:01,15.37426537,0.0001464,53.2167,117.5919,52.7075,258.0332,-0.034379,-0.01166148,0.0,0 STARLINK-5009,1 53928U 22119AU  23003.58334491 -.01166148  00000-0 -34379-1 0  9993,2 53928  53.2167 117.5919 0001464  52.7075 258.0332 15.37426537  1307,6831.859,93.663,454.725,452.724,0.0
53928.0,STARLINK-5009,PAYLOAD,2023-01-04 06:00:00,15.35787055,0.0001678,53.2166,114.4676,35.119,5.4985,-0.0356519999999999,-0.01148359,0.0,0 STARLINK-5009,1 53928U 22119AU  23004.25001157 -.01148359  00000-0 -35652-1 0  9997,2 53928  53.2166 114.4676 0001678  35.1190   5.4985 15.35787055 16343,6836.721,93.763,459.733,457.439,0.0
53928.0,STARLINK-5009,PAYLOAD,2023-01-04 14:00:01,15.34976393,0.0001664,53.2169,112.9107,46.3677,37.7805,-0.036771,-0.01153385,0.0,0 STARLINK-5009,1 53928U 22119AU  23004.58335648 -.01153385  00000-0 -36771-1 0  9996,2 53928  53.2169 112.9107 0001664  46.3677  37.7805 15.34976393  1300,6839.128000000002,93.813,462.131,459.855,0.0
53928.0,STARLINK-5009,PAYLOAD,2023-01-04 22:00:00,15.34167263,0.0001691,53.2166,111.3537,39.1911,87.3818,-0.037939,-0.01159022,0.0,0 STARLINK-5009,1 53928U 22119AU  23004.91667824 -.01159022  00000-0 -37939-1 0  9998,2 53928  53.2166 111.3537 0001691  39.1911  87.3818 15.34167263  1301,6841.531999999997,93.862,464.554,462.24,0.0
53928.0,STARLINK-5009,PAYLOAD,2023-01-05 06:00:00,15.33350476,0.0001976999999999,53.2168,109.798,38.7683,129.3192,-0.038764,-0.01154313,0.0,0 STARLINK-5009,1 53928U 22119AU  23005.25001157 -.01154313  00000-0 -38764-1 0  9992,2 53928  53.2168 109.7980 0001977  38.7683 129.3192 15.33350476 16491,6843.9609999999975,93.912,467.179,464.473,0.0
53928.0,STARLINK-5009,PAYLOAD,2023-01-05 14:00:01,15.32538421,0.0001604,53.2169,108.2468,49.1368,159.484,-0.039866,-0.01156614,0.0,0 STARLINK-5009,1 53928U 22119AU  23005.58334491 -.01156614  00000-0 -39866-1 0  9998,2 53928  53.2169 108.2468 0001604  49.1368 159.4840 15.32538421  1305,6846.379,93.962,469.342,467.146,0.0
53928.0,STARLINK-5009,PAYLOAD,2023-01-05 20:00:01,15.31914344,0.0001661,53.2172,107.0832,45.5595,102.8276,-0.039906,-0.01137049,0.0,0 STARLINK-5009,1 53928U 22119AU  23005.83334491 -.01137049  00000-0 -39906-1 0  9992,2 53928  53.2172 107.0832 0001661  45.5595 102.8276 15.31914344  1302,6848.238,94.0,471.241,468.966,0.0
53928.0,STARLINK-5009,PAYLOAD,2023-01-06 14:00:01,15.30112048,0.0001389,53.2172,103.6004,53.983,270.3689,-0.043862,-0.01177117,0.0,0 STARLINK-5009,1 53928U 22119AU  23006.58334491 -.01177117  00000-0 -43862-1 0  9991,2 53928  53.2172 103.6004 0001389  53.9830 270.3689 15.30112048 16706,6853.615,94.111,476.432,474.528,0.0
53928.0,STARLINK-5009,PAYLOAD,2023-01-06 22:00:00,15.29278081,0.0001499,53.2168,102.0545,41.7675,319.218,-0.043851,-0.01149409,0.0,0 STARLINK-5009,1 53928U 22119AU  23006.91667824 -.01149409  00000-0 -43851-1 0  9998,2 53928  53.2168 102.0545 0001499  41.7675 319.2180 15.29278081  1316,6856.106,94.162,478.999,476.943,0.0
53928.0,STARLINK-5009,PAYLOAD,2023-01-07 06:00:00,15.284641699999998,0.0001767,53.217,100.5104,36.2671,0.3642,-0.044887,-0.0114757,0.0,0 STARLINK-5009,1 53928U 22119AU  23007.25001157 -.01147570  00000-0 -44887-1 0  9994,2 53928  53.2170 100.5104 0001767  36.2671   0.3642 15.28464170 16802,6858.54,94.212,481.617,479.193,0.0
53928.0,STARLINK-5009,PAYLOAD,2023-01-08 00:00:00,15.26623377,0.0001676999999999,53.2174,97.0455,46.8504,156.4135,-0.046876,-0.01133914,0.0,0 STARLINK-5009,1 53928U 22119AU  23008.00001157 -.01133914  00000-0 -46876-1 0  9995,2 53928  53.2174  97.0455 0001677  46.8504 156.4135 15.26623377  1300,6864.052,94.326,487.068,484.766,0.0
53928.0,STARLINK-5009,PAYLOAD,2023-01-08 06:00:00,15.26032647,0.0002047,53.217,95.8926,35.0001,102.6963,-0.048928,-0.01175753,0.0,0 STARLINK-5009,1 53928U 22119AU  23008.25001157 -.01175753  00000-0 -48928-1 0  9999,2 53928  53.2170  95.8926 0002047  35.0001 102.6963 15.26032647 16952,6865.823,94.362,489.094,486.283,0.0
53928.0,STARLINK-5009,PAYLOAD,2023-01-08 14:00:01,15.25225493,0.0001771,53.2172,94.3591,47.4367,121.9901,-0.050605,-0.0118577,0.0,0 STARLINK-5009,1 53928U 22119AU  23008.58334491 -.01185770  00000-0 -50605-1 0  9990,2 53928  53.2172  94.3591 0001771  47.4367 121.9901 15.25225493  1302,6868.245,94.412,491.327,488.894,0.0
53928.0,STARLINK-5009,PAYLOAD,2023-01-08 22:00:00,15.24381563,0.000307,53.2168,92.8243,284.2713,275.9253,-0.049626,-0.01123025,0.0,0 STARLINK-5009,1 53928U 22119AU  23008.91667824 -.01123025  00000-0 -49626-1 0  9992,2 53928  53.2168  92.8243 0003070 284.2713 275.9253 15.24381563  1304,6870.78,94.465,494.754,490.536,0.0
53928.0,STARLINK-5009,PAYLOAD,2023-01-09 14:00:01,15.22775631,0.0001774999999999,53.2172,89.7641,48.8858,209.8813,-0.053856,-0.01173558,0.0,0 STARLINK-5009,1 53928U 22119AU  23009.58334491 -.01173558  00000-0 -53856-1 0  9993,2 53928  53.2172  89.7641 0001775  48.8858 209.8813 15.22775631  1309,6875.61,94.564,498.695,496.254,0.0
53928.0,STARLINK-5009,PAYLOAD,2023-01-09 16:00:00,15.22552071,0.0001629,53.2173,89.382,40.9134,314.9103,-0.052769,-0.01144586,0.0,0 STARLINK-5009,1 53928U 22119AU  23009.66667824 -.01144586  00000-0 -52769-1 0  9992,2 53928  53.2173  89.3820 0001629  40.9134 314.9103 15.22552071 17176,6876.283,94.578,499.268,497.028,0.0
53928.0,STARLINK-5009,PAYLOAD,2023-01-10 00:00:00,15.21740991,0.0001573,53.2176,87.8528,39.63,343.7722,-0.054277,-0.01148936,0.0,0 STARLINK-5009,1 53928U 22119AU  23010.00001157 -.01148936  00000-0 -54277-1 0  9992,2 53928  53.2176  87.8528 0001573  39.6300 343.7722 15.21740991  1309,6878.726,94.628,501.673,499.509,0.0
53928.0,STARLINK-5009,PAYLOAD,2023-01-10 14:00:01,15.20316691,0.0001460999999999,53.2177,85.1864,45.5244,293.7854,-0.056515,-0.01147245,0.0,0 STARLINK-5009,1 53928U 22119AU  23010.58334491 -.01147245  00000-0 -56515-1 0  9994,2 53928  53.2177  85.1864 0001461  45.5244 293.7854 15.20316691 17316,6883.022,94.717,505.892,503.881,0.0
53928.0,STARLINK-5009,PAYLOAD,2023-01-10 22:00:00,15.19486709,0.0001541,53.2127,83.6633,83.6989,280.543,-0.056926,-0.01129319,0.0,0 STARLINK-5009,1 53928U 22119AU  23010.91667824 -.01129319  00000-0 -56926-1 0  9998,2 53928  53.2127  83.6633 0001541  83.6989 280.5430 15.19486709  1308,6885.528,94.769,508.454,506.332,0.0
53928.0,STARLINK-5009,PAYLOAD,2023-01-11 14:00:01,15.17875197,0.0001875,53.2176,80.6256,34.8386,16.2065,-0.060724,-0.01148035,0.0,0 STARLINK-5009,1 53928U 22119AU  23011.58334491 -.01148035  00000-0 -60724-1 0  9990,2 53928  53.2176  80.6256 0001875  34.8386  16.2065 15.17875197 17462,6890.4,94.869,513.557,510.974,0.0
53928.0,STARLINK-5009,PAYLOAD,2023-01-11 22:00:00,15.17064028,0.0001831,53.2175,79.1076,36.697,36.3036,-0.062371,-0.01151566,0.0,0 STARLINK-5009,1 53928U 22119AU  23011.91667824 -.01151566  00000-0 -62371-1 0  9999,2 53928  53.2175  79.1076 0001831  36.6970  36.3036 15.17064028  1305,6892.856,94.92,515.984,513.4590000000002,0.0
53928.0,STARLINK-5009,PAYLOAD,2023-01-12 20:00:01,15.14842433,0.0001118,53.2123,74.9472,82.2744,316.0948,-0.068591,-0.01185285,0.0,0 STARLINK-5009,1 53928U 22119AU  23012.83334491 -.01185285  00000-0 -68591-1 0  9997,2 53928  53.2123  74.9472 0001118  82.2744 316.0948 15.14842433 17651,6899.594,95.059,522.23,520.688,0.0
53928.0,STARLINK-5009,PAYLOAD,2023-01-12 22:00:00,15.14606013,0.000127,53.2125,74.5692,85.2395,47.8052,-0.06555,-0.0112974,0.0,0 STARLINK-5009,1 53928U 22119AU  23012.91667824 -.01129740  00000-0 -65550-1 0  9991,2 53928  53.2125  74.5692 0001270  85.2395  47.8052 15.14606013  1309,6900.312,95.074,523.053,521.3009999999998,0.0
53928.0,STARLINK-5009,PAYLOAD,2023-01-13 14:00:01,15.12965341,0.0001384,53.2132,71.555,77.9246,90.227,-0.066499,-0.01096773,0.0,0 STARLINK-5009,1 53928U 22119AU  23013.58334491 -.01096773  00000-0 -66499-1 0  9998,2 53928  53.2132  71.5550 0001384  77.9246  90.2270 15.12965341 17767,6905.3,95.177,528.12,526.2090000000001,0.0
